SHIJIAN-16 (SJ-16)      
1 39358U 13057A   25329.03347162  .00002500  00000+0  24927-3 0  9994
2 39358  74.9742  23.1552 0016959   1.9897 358.1356 14.91912354655898
SL-4 R/B                
1 39679U 14021B   25328.85795574  .00017808  00000+0  42787-3 0  9996
2 39679  51.6056 127.4550 0103151  81.9367 279.3304 15.36020254640149
ALOS-2                  
1 39766U 14029A   25329.02323691 -.00000670  00000+0 -82803-4 0  9993
2 39766  97.9239  64.1211 0001289  96.7011 263.4347 14.79469926621398
YAOGAN-29               
1 41038U 15069A   25329.00543104  .00000579  00000+0  78200-4 0  9996
2 41038  98.0236 352.1188 0001383  26.0034 334.1248 14.82853724540361
ASTRO-H (HITOMI)        
1 41337U 16012A   25328.63528266  .00003513  00000+0  20982-3 0  9991
2 41337  31.0010 314.0717 0009675 354.5936   5.4596 15.09186437536344
HXMT (HUIYAN)           
1 42758U 17034A   25329.00293091  .00007565  00000+0  39289-3 0  9992
2 42758  43.0136 238.0393 0033903 292.1939  67.5313 15.16010816466646
CZ-2C R/B               
1 43521U 18054D   25327.99873900  .00097946  00000+0  77166-3 0  9991
2 43521  35.1366 307.5674 0021637 313.6752  46.2187 15.69837663412109
SAOCOM 1A               
1 43641U 18076A   25328.98413583  .00000615  00000+0  83815-4 0  9991
2 43641  97.8859 153.6643 0001572  89.6074 270.5320 14.82148419385853
H-2A R/B                
1 43682U 18084L   25328.78825316  .00021915  00000+0  60905-3 0  9994
2 43682  98.8785 159.1600 0028744  27.6435 332.6326 15.36487161389641
SAOCOM 1B               
1 46265U 20059A   25329.01539806  .00000616  00000+0  83974-4 0  9999
2 46265  97.8863 152.7966 0001350  90.2782 269.8585 14.82157244283249
CSS (TIANHE)            
1 48274U 21035A   25328.58140128  .00021413  00000+0  27858-3 0  9998
2 48274  41.4653 126.8581 0010743 261.2431  98.7190 15.58193834261195
COSMOS 2550             
1 48865U 21056A   25329.05480001  .00000033  00000+0  68293-5 0  9992
2 48865  67.1432 357.4280 0008401 270.4674  89.5518 15.33845234247410
