CCSDS_OMM_VERS = 2.0
CREATION_DATE  = 
ORIGINATOR     = 

OBJECT_NAME    = SHIJIAN-16 (SJ-16)
OBJECT_ID      = 2013-057A
CENTER_NAME    = EARTH
REF_FRAME      = TEME
TIME_SYSTEM    = UTC
MEAN_ELEMENT_THEORY = SGP/SGP4

EPOCH          = 2025-11-25T00:48:11.947968
MEAN_MOTION    = 14.91912354
ECCENTRICITY   = .00169598
INCLINATION    = 74.9742
RA_OF_ASC_NODE = 23.1552
ARG_OF_PERICENTER = 1.9897
MEAN_ANOMALY   = 358.1356

EPHEMERIS_TYPE = 0
CLASSIFICATION_TYPE = U
NORAD_CAT_ID   = 39358
ELEMENT_SET_NO = 999
REV_AT_EPOCH   = 65589
BSTAR          = .24926598E-3
MEAN_MOTION_DOT = .25E-4
MEAN_MOTION_DDOT = 0

CCSDS_OMM_VERS = 2.0
CREATION_DATE  = 
ORIGINATOR     = 

OBJECT_NAME    = SL-4 R/B
OBJECT_ID      = 2014-021B
CENTER_NAME    = EARTH
REF_FRAME      = TEME
TIME_SYSTEM    = UTC
MEAN_ELEMENT_THEORY = SGP/SGP4

EPOCH          = 2025-11-24T20:35:27.375936
MEAN_MOTION    = 15.36020254
ECCENTRICITY   = .01031512
INCLINATION    = 51.6056
RA_OF_ASC_NODE = 127.4550
ARG_OF_PERICENTER = 81.9367
MEAN_ANOMALY   = 279.3304

EPHEMERIS_TYPE = 0
CLASSIFICATION_TYPE = U
NORAD_CAT_ID   = 39679
ELEMENT_SET_NO = 999
REV_AT_EPOCH   = 64014
BSTAR          = .42786746E-3
MEAN_MOTION_DOT = .17808E-3
MEAN_MOTION_DDOT = 0

CCSDS_OMM_VERS = 2.0
CREATION_DATE  = 
ORIGINATOR     = 

OBJECT_NAME    = ALOS-2
OBJECT_ID      = 2014-029A
CENTER_NAME    = EARTH
REF_FRAME      = TEME
TIME_SYSTEM    = UTC
MEAN_ELEMENT_THEORY = SGP/SGP4

EPOCH          = 2025-11-25T00:33:27.669024
MEAN_MOTION    = 14.79469926
ECCENTRICITY   = .0001289
INCLINATION    = 97.9239
RA_OF_ASC_NODE = 64.1211
ARG_OF_PERICENTER = 96.7011
MEAN_ANOMALY   = 263.4347

EPHEMERIS_TYPE = 0
CLASSIFICATION_TYPE = U
NORAD_CAT_ID   = 39766
ELEMENT_SET_NO = 999
REV_AT_EPOCH   = 62139
BSTAR          = -.82802853E-4
MEAN_MOTION_DOT = -.67E-5
MEAN_MOTION_DDOT = 0

CCSDS_OMM_VERS = 2.0
CREATION_DATE  = 
ORIGINATOR     = 

OBJECT_NAME    = YAOGAN-29
OBJECT_ID      = 2015-069A
CENTER_NAME    = EARTH
REF_FRAME      = TEME
TIME_SYSTEM    = UTC
MEAN_ELEMENT_THEORY = SGP/SGP4

EPOCH          = 2025-11-25T00:07:49.241856
MEAN_MOTION    = 14.82853724
ECCENTRICITY   = .00013831
INCLINATION    = 98.0236
RA_OF_ASC_NODE = 352.1188
ARG_OF_PERICENTER = 26.0034
MEAN_ANOMALY   = 334.1248

EPHEMERIS_TYPE = 0
CLASSIFICATION_TYPE = U
NORAD_CAT_ID   = 41038
ELEMENT_SET_NO = 999
REV_AT_EPOCH   = 54036
BSTAR          = .78199856E-4
MEAN_MOTION_DOT = .579E-5
MEAN_MOTION_DDOT = 0

CCSDS_OMM_VERS = 2.0
CREATION_DATE  = 
ORIGINATOR     = 

OBJECT_NAME    = ASTRO-H (HITOMI)
OBJECT_ID      = 2016-012A
CENTER_NAME    = EARTH
REF_FRAME      = TEME
TIME_SYSTEM    = UTC
MEAN_ELEMENT_THEORY = SGP/SGP4

EPOCH          = 2025-11-24T15:14:48.421824
MEAN_MOTION    = 15.09186437
ECCENTRICITY   = .00096755
INCLINATION    = 31.0010
RA_OF_ASC_NODE = 314.0717
ARG_OF_PERICENTER = 354.5936
MEAN_ANOMALY   = 5.4596

EPHEMERIS_TYPE = 0
CLASSIFICATION_TYPE = U
NORAD_CAT_ID   = 41337
ELEMENT_SET_NO = 999
REV_AT_EPOCH   = 53634
BSTAR          = .20982055E-3
MEAN_MOTION_DOT = .3513E-4
MEAN_MOTION_DDOT = 0

CCSDS_OMM_VERS = 2.0
CREATION_DATE  = 
ORIGINATOR     = 

OBJECT_NAME    = HXMT (HUIYAN)
OBJECT_ID      = 2017-034A
CENTER_NAME    = EARTH
REF_FRAME      = TEME
TIME_SYSTEM    = UTC
MEAN_ELEMENT_THEORY = SGP/SGP4

EPOCH          = 2025-11-25T00:04:13.230624
MEAN_MOTION    = 15.16010816
ECCENTRICITY   = .00339032
INCLINATION    = 43.0136
RA_OF_ASC_NODE = 238.0393
ARG_OF_PERICENTER = 292.1939
MEAN_ANOMALY   = 67.5313

EPHEMERIS_TYPE = 0
CLASSIFICATION_TYPE = U
NORAD_CAT_ID   = 42758
ELEMENT_SET_NO = 999
REV_AT_EPOCH   = 46664
BSTAR          = .39288706E-3
MEAN_MOTION_DOT = .7565E-4
MEAN_MOTION_DDOT = 0

CCSDS_OMM_VERS = 2.0
CREATION_DATE  = 
ORIGINATOR     = 

OBJECT_NAME    = CZ-2C R/B
OBJECT_ID      = 2018-054D
CENTER_NAME    = EARTH
REF_FRAME      = TEME
TIME_SYSTEM    = UTC
MEAN_ELEMENT_THEORY = SGP/SGP4

EPOCH          = 2025-11-23T23:58:11.049600
MEAN_MOTION    = 15.69837663
ECCENTRICITY   = .00216373
INCLINATION    = 35.1366
RA_OF_ASC_NODE = 307.5674
ARG_OF_PERICENTER = 313.6752
MEAN_ANOMALY   = 46.2187

EPHEMERIS_TYPE = 0
CLASSIFICATION_TYPE = U
NORAD_CAT_ID   = 43521
ELEMENT_SET_NO = 999
REV_AT_EPOCH   = 41210
BSTAR          = .77166138E-3
MEAN_MOTION_DOT = .97946E-3
MEAN_MOTION_DDOT = 0

CCSDS_OMM_VERS = 2.0
CREATION_DATE  = 
ORIGINATOR     = 

OBJECT_NAME    = SAOCOM 1A
OBJECT_ID      = 2018-076A
CENTER_NAME    = EARTH
REF_FRAME      = TEME
TIME_SYSTEM    = UTC
MEAN_ELEMENT_THEORY = SGP/SGP4

EPOCH          = 2025-11-24T23:37:09.335712
MEAN_MOTION    = 14.82148419
ECCENTRICITY   = .00015725
INCLINATION    = 97.8859
RA_OF_ASC_NODE = 153.6643
ARG_OF_PERICENTER = 89.6074
MEAN_ANOMALY   = 270.5320

EPHEMERIS_TYPE = 0
CLASSIFICATION_TYPE = U
NORAD_CAT_ID   = 43641
ELEMENT_SET_NO = 999
REV_AT_EPOCH   = 38585
BSTAR          = .83815343E-4
MEAN_MOTION_DOT = .615E-5
MEAN_MOTION_DDOT = 0

CCSDS_OMM_VERS = 2.0
CREATION_DATE  = 
ORIGINATOR     = 

OBJECT_NAME    = H-2A R/B
OBJECT_ID      = 2018-084L
CENTER_NAME    = EARTH
REF_FRAME      = TEME
TIME_SYSTEM    = UTC
MEAN_ELEMENT_THEORY = SGP/SGP4

EPOCH          = 2025-11-24T18:55:05.073024
MEAN_MOTION    = 15.36487161
ECCENTRICITY   = .00287446
INCLINATION    = 98.8785
RA_OF_ASC_NODE = 159.1600
ARG_OF_PERICENTER = 27.6435
MEAN_ANOMALY   = 332.6326

EPHEMERIS_TYPE = 0
CLASSIFICATION_TYPE = U
NORAD_CAT_ID   = 43682
ELEMENT_SET_NO = 999
REV_AT_EPOCH   = 38964
BSTAR          = .6090534E-3
MEAN_MOTION_DOT = .21915E-3
MEAN_MOTION_DDOT = 0

CCSDS_OMM_VERS = 2.0
CREATION_DATE  = 
ORIGINATOR     = 

OBJECT_NAME    = SAOCOM 1B
OBJECT_ID      = 2020-059A
CENTER_NAME    = EARTH
REF_FRAME      = TEME
TIME_SYSTEM    = UTC
MEAN_ELEMENT_THEORY = SGP/SGP4

EPOCH          = 2025-11-25T00:22:10.392384
MEAN_MOTION    = 14.82157244
ECCENTRICITY   = .000135
INCLINATION    = 97.8863
RA_OF_ASC_NODE = 152.7966
ARG_OF_PERICENTER = 90.2782
MEAN_ANOMALY   = 269.8585

EPHEMERIS_TYPE = 0
CLASSIFICATION_TYPE = U
NORAD_CAT_ID   = 46265
ELEMENT_SET_NO = 999
REV_AT_EPOCH   = 28324
BSTAR          = .83973732E-4
MEAN_MOTION_DOT = .616E-5
MEAN_MOTION_DDOT = 0

CCSDS_OMM_VERS = 2.0
CREATION_DATE  = 
ORIGINATOR     = 

OBJECT_NAME    = CSS (TIANHE)
OBJECT_ID      = 2021-035A
CENTER_NAME    = EARTH
REF_FRAME      = TEME
TIME_SYSTEM    = UTC
MEAN_ELEMENT_THEORY = SGP/SGP4

EPOCH          = 2025-11-24T13:57:13.070592
MEAN_MOTION    = 15.58193834
ECCENTRICITY   = .00107432
INCLINATION    = 41.4653
RA_OF_ASC_NODE = 126.8581
ARG_OF_PERICENTER = 261.2431
MEAN_ANOMALY   = 98.7190

EPHEMERIS_TYPE = 0
CLASSIFICATION_TYPE = U
NORAD_CAT_ID   = 48274
ELEMENT_SET_NO = 999
REV_AT_EPOCH   = 26119
BSTAR          = .27858096E-3
MEAN_MOTION_DOT = .21413E-3
MEAN_MOTION_DDOT = 0

CCSDS_OMM_VERS = 2.0
CREATION_DATE  = 
ORIGINATOR     = 

OBJECT_NAME    = COSMOS 2550
OBJECT_ID      = 2021-056A
CENTER_NAME    = EARTH
REF_FRAME      = TEME
TIME_SYSTEM    = UTC
MEAN_ELEMENT_THEORY = SGP/SGP4

EPOCH          = 2025-11-25T01:18:54.720864
MEAN_MOTION    = 15.33845234
ECCENTRICITY   = .00084015
INCLINATION    = 67.1432
RA_OF_ASC_NODE = 357.4280
ARG_OF_PERICENTER = 270.4674
MEAN_ANOMALY   = 89.5518

EPHEMERIS_TYPE = 0
CLASSIFICATION_TYPE = U
NORAD_CAT_ID   = 48865
ELEMENT_SET_NO = 999
REV_AT_EPOCH   = 24741
BSTAR          = .6829297E-5
MEAN_MOTION_DOT = .33E-6
MEAN_MOTION_DDOT = 0

